[
  {
    "OBJECT_NAME": "STARLINK-2102",
    "OBJECT_ID": "21005AK",
    "EPOCH": "2025-11-11T02:24:16.541280",
    "MEAN_MOTION": 15.06398166,
    "ECCENTRICITY": 0.0001852,
    "INCLINATION": 53.0519,
    "RA_OF_ASC_NODE": 203.9888,
    "ARG_OF_PERICENTER": 82.7594,
    "MEAN_ANOMALY": 277.3605,
    "EPHEMERIS_TYPE": 0,
    "CLASSIFICATION_TYPE": "U",
    "NORAD_CAT_ID": 47382,
    "ELEMENT_SET_NO": 999,
    "REV_AT_EPOCH": 26558,
    "BSTAR": 0.00019571,
    "MEAN_MOTION_DOT": 2.635e-05,
    "MEAN_MOTION_DDOT": 0.0,
    "TLE_LINE1": "1 47382U 21005AK  25315.10019145  .00002635  00000+0  19571-3 0  9990",
    "TLE_LINE2": "2 47382  53.0519 203.9888 0001852  82.7594 277.3605 15.06398166265589",
    "COMMENT": "Grouped by shell and plane from TLE"
  },
  {
    "OBJECT_NAME": "STARLINK-2104",
    "OBJECT_ID": "21005AM",
    "EPOCH": "2025-11-11T02:03:05.629248",
    "MEAN_MOTION": 15.06397449,
    "ECCENTRICITY": 0.0001548,
    "INCLINATION": 53.0519,
    "RA_OF_ASC_NODE": 204.294,
    "ARG_OF_PERICENTER": 87.9207,
    "MEAN_ANOMALY": 272.196,
    "EPHEMERIS_TYPE": 0,
    "CLASSIFICATION_TYPE": "U",
    "NORAD_CAT_ID": 47384,
    "ELEMENT_SET_NO": 999,
    "REV_AT_EPOCH": 26558,
    "BSTAR": 0.00023271,
    "MEAN_MOTION_DOT": 3.186e-05,
    "MEAN_MOTION_DDOT": 0.0,
    "TLE_LINE1": "1 47384U 21005AM  25315.08548182  .00003186  00000+0  23271-3 0  9991",
    "TLE_LINE2": "2 47384  53.0519 204.2940 0001548  87.9207 272.1960 15.06397449265584",
    "COMMENT": "Grouped by shell and plane from TLE"
  },
  {
    "OBJECT_NAME": "STARLINK-2105",
    "OBJECT_ID": "21005AN",
    "EPOCH": "2025-11-11T01:57:43.505856",
    "MEAN_MOTION": 15.06392883,
    "ECCENTRICITY": 0.0001734,
    "INCLINATION": 53.0554,
    "RA_OF_ASC_NODE": 204.0704,
    "ARG_OF_PERICENTER": 85.6841,
    "MEAN_ANOMALY": 274.4347,
    "EPHEMERIS_TYPE": 0,
    "CLASSIFICATION_TYPE": "U",
    "NORAD_CAT_ID": 47385,
    "ELEMENT_SET_NO": 999,
    "REV_AT_EPOCH": 26558,
    "BSTAR": 0.00027039,
    "MEAN_MOTION_DOT": 3.747e-05,
    "MEAN_MOTION_DDOT": 0.0,
    "TLE_LINE1": "1 47385U 21005AN  25315.08175354  .00003747  00000+0  27039-3 0  9998",
    "TLE_LINE2": "2 47385  53.0554 204.0704 0001734  85.6841 274.4347 15.06392883265587",
    "COMMENT": "Grouped by shell and plane from TLE"
  },
  {
    "OBJECT_NAME": "STARLINK-2106",
    "OBJECT_ID": "21005AP",
    "EPOCH": "2025-11-11T02:40:11.117856",
    "MEAN_MOTION": 15.06392623,
    "ECCENTRICITY": 0.0001263,
    "INCLINATION": 53.0526,
    "RA_OF_ASC_NODE": 203.9389,
    "ARG_OF_PERICENTER": 97.4391,
    "MEAN_ANOMALY": 262.6742,
    "EPHEMERIS_TYPE": 0,
    "CLASSIFICATION_TYPE": "U",
    "NORAD_CAT_ID": 47386,
    "ELEMENT_SET_NO": 999,
    "REV_AT_EPOCH": 26559,
    "BSTAR": 0.00014761,
    "MEAN_MOTION_DOT": 1.917e-05,
    "MEAN_MOTION_DDOT": 0.0,
    "TLE_LINE1": "1 47386U 21005AP  25315.11123979  .00001917  00000+0  14761-3 0  9994",
    "TLE_LINE2": "2 47386  53.0526 203.9389 0001263  97.4391 262.6742 15.06392623265593",
    "COMMENT": "Grouped by shell and plane from TLE"
  },
  {
    "OBJECT_NAME": "STARLINK-2112",
    "OBJECT_ID": "21005AU",
    "EPOCH": "2025-11-11T03:53:07.767744",
    "MEAN_MOTION": 15.06411023,
    "ECCENTRICITY": 0.0001576,
    "INCLINATION": 53.0529,
    "RA_OF_ASC_NODE": 203.7121,
    "ARG_OF_PERICENTER": 103.6591,
    "MEAN_ANOMALY": 256.4573,
    "EPHEMERIS_TYPE": 0,
    "CLASSIFICATION_TYPE": "U",
    "NORAD_CAT_ID": 47391,
    "ELEMENT_SET_NO": 999,
    "REV_AT_EPOCH": 26559,
    "BSTAR": 0.0013382,
    "MEAN_MOTION_DOT": 0.00019714,
    "MEAN_MOTION_DDOT": 0.0,
    "TLE_LINE1": "1 47391U 21005AU  25315.16189546  .00019714  00000+0  13382-2 0  9998",
    "TLE_LINE2": "2 47391  53.0529 203.7121 0001576 103.6591 256.4573 15.06411023265592",
    "COMMENT": "Grouped by shell and plane from TLE"
  },
  {
    "OBJECT_NAME": "STARLINK-2113",
    "OBJECT_ID": "21005AV",
    "EPOCH": "2025-11-11T02:18:57.691584",
    "MEAN_MOTION": 15.06391311,
    "ECCENTRICITY": 0.0001534,
    "INCLINATION": 53.0528,
    "RA_OF_ASC_NODE": 204.0057,
    "ARG_OF_PERICENTER": 93.0869,
    "MEAN_ANOMALY": 267.0296,
    "EPHEMERIS_TYPE": 0,
    "CLASSIFICATION_TYPE": "U",
    "NORAD_CAT_ID": 47392,
    "ELEMENT_SET_NO": 999,
    "REV_AT_EPOCH": 26558,
    "BSTAR": 9.4178e-05,
    "MEAN_MOTION_DOT": 1.121e-05,
    "MEAN_MOTION_DDOT": 0.0,
    "TLE_LINE1": "1 47392U 21005AV  25315.09650106  .00001121  00000+0  94178-4 0  9993",
    "TLE_LINE2": "2 47392  53.0528 204.0057 0001534  93.0869 267.0296 15.06391311265584",
    "COMMENT": "Grouped by shell and plane from TLE"
  },
  {
    "OBJECT_NAME": "STARLINK-2123",
    "OBJECT_ID": "21005BE",
    "EPOCH": "2025-11-11T02:29:35.007360",
    "MEAN_MOTION": 15.06410814,
    "ECCENTRICITY": 0.000148,
    "INCLINATION": 53.0526,
    "RA_OF_ASC_NODE": 203.9739,
    "ARG_OF_PERICENTER": 83.2609,
    "MEAN_ANOMALY": 276.8549,
    "EPHEMERIS_TYPE": 0,
    "CLASSIFICATION_TYPE": "U",
    "NORAD_CAT_ID": 47401,
    "ELEMENT_SET_NO": 999,
    "REV_AT_EPOCH": 26559,
    "BSTAR": 0.00055827,
    "MEAN_MOTION_DOT": 8.046e-05,
    "MEAN_MOTION_DDOT": 0.0,
    "TLE_LINE1": "1 47401U 21005BE  25315.10387740  .00008046  00000+0  55827-3 0  9997",
    "TLE_LINE2": "2 47401  53.0526 203.9739 0001480  83.2609 276.8549 15.06410814265591",
    "COMMENT": "Grouped by shell and plane from TLE"
  },
  {
    "OBJECT_NAME": "STARLINK-2128",
    "OBJECT_ID": "21005BH",
    "EPOCH": "2025-11-10T23:50:20.906592",
    "MEAN_MOTION": 15.06405349,
    "ECCENTRICITY": 0.00017,
    "INCLINATION": 53.0539,
    "RA_OF_ASC_NODE": 204.4684,
    "ARG_OF_PERICENTER": 80.2466,
    "MEAN_ANOMALY": 279.8715,
    "EPHEMERIS_TYPE": 0,
    "CLASSIFICATION_TYPE": "U",
    "NORAD_CAT_ID": 47404,
    "ELEMENT_SET_NO": 999,
    "REV_AT_EPOCH": 26557,
    "BSTAR": 0.00027742,
    "MEAN_MOTION_DOT": 3.854e-05,
    "MEAN_MOTION_DDOT": 0.0,
    "TLE_LINE1": "1 47404U 21005BH  25314.99329753  .00003854  00000+0  27742-3 0  9993",
    "TLE_LINE2": "2 47404  53.0539 204.4684 0001700  80.2466 279.8715 15.06405349265579",
    "COMMENT": "Grouped by shell and plane from TLE"
  },
  {
    "OBJECT_NAME": "STARLINK-2134",
    "OBJECT_ID": "21005BL",
    "EPOCH": "2025-11-11T03:27:58.188672",
    "MEAN_MOTION": 15.06398374,
    "ECCENTRICITY": 0.000185,
    "INCLINATION": 53.0512,
    "RA_OF_ASC_NODE": 203.791,
    "ARG_OF_PERICENTER": 77.6601,
    "MEAN_ANOMALY": 282.4595,
    "EPHEMERIS_TYPE": 0,
    "CLASSIFICATION_TYPE": "U",
    "NORAD_CAT_ID": 47407,
    "ELEMENT_SET_NO": 999,
    "REV_AT_EPOCH": 26559,
    "BSTAR": 7.0072000000000004e-06,
    "MEAN_MOTION_DOT": -1.77e-06,
    "MEAN_MOTION_DDOT": 0.0,
    "TLE_LINE1": "1 47407U 21005BL  25315.14442348 -.00000177  00000+0  70072-5 0  9992",
    "TLE_LINE2": "2 47407  53.0512 203.7910 0001850  77.6601 282.4595 15.06398374265591",
    "COMMENT": "Grouped by shell and plane from TLE"
  },
  {
    "OBJECT_NAME": "STARLINK-2135",
    "OBJECT_ID": "21005BM",
    "EPOCH": "2025-11-11T02:45:30.731328",
    "MEAN_MOTION": 15.06392714,
    "ECCENTRICITY": 0.0001844,
    "INCLINATION": 53.0547,
    "RA_OF_ASC_NODE": 203.9218,
    "ARG_OF_PERICENTER": 90.5432,
    "MEAN_ANOMALY": 269.5768,
    "EPHEMERIS_TYPE": 0,
    "CLASSIFICATION_TYPE": "U",
    "NORAD_CAT_ID": 47408,
    "ELEMENT_SET_NO": 999,
    "REV_AT_EPOCH": 26559,
    "BSTAR": 7.7656e-05,
    "MEAN_MOTION_DOT": 8.75e-06,
    "MEAN_MOTION_DDOT": 0.0,
    "TLE_LINE1": "1 47408U 21005BM  25315.11493902  .00000875  00000+0  77656-4 0  9990",
    "TLE_LINE2": "2 47408  53.0547 203.9218 0001844  90.5432 269.5768 15.06392714265592",
    "COMMENT": "Grouped by shell and plane from TLE"
  },
  {
    "OBJECT_NAME": "STARLINK-3694",
    "OBJECT_ID": "22025B",
    "EPOCH": "2025-11-11T02:35:24.040032",
    "MEAN_MOTION": 15.06380686,
    "ECCENTRICITY": 0.0001428,
    "INCLINATION": 53.0567,
    "RA_OF_ASC_NODE": 208.2015,
    "ARG_OF_PERICENTER": 93.9743,
    "MEAN_ANOMALY": 266.1409,
    "EPHEMERIS_TYPE": 0,
    "CLASSIFICATION_TYPE": "U",
    "NORAD_CAT_ID": 51957,
    "ELEMENT_SET_NO": 999,
    "REV_AT_EPOCH": 20297,
    "BSTAR": 0.0,
    "MEAN_MOTION_DOT": -8.58e-06,
    "MEAN_MOTION_DDOT": 0.0,
    "TLE_LINE1": "1 51957U 22025B   25315.10791713 -.00000858  00000+0 -38712-4 0  9990",
    "TLE_LINE2": "2 51957  53.0567 208.2015 0001428  93.9743 266.1409 15.06380686202974",
    "COMMENT": "Grouped by shell and plane from TLE"
  },
  {
    "OBJECT_NAME": "STARLINK-3704",
    "OBJECT_ID": "22025D",
    "EPOCH": "2025-11-11T02:40:39.694656",
    "MEAN_MOTION": 15.06404923,
    "ECCENTRICITY": 0.0001455,
    "INCLINATION": 53.0546,
    "RA_OF_ASC_NODE": 208.1618,
    "ARG_OF_PERICENTER": 92.6774,
    "MEAN_ANOMALY": 267.4382,
    "EPHEMERIS_TYPE": 0,
    "CLASSIFICATION_TYPE": "U",
    "NORAD_CAT_ID": 51959,
    "ELEMENT_SET_NO": 999,
    "REV_AT_EPOCH": 20297,
    "BSTAR": 0.00017239,
    "MEAN_MOTION_DOT": 2.287e-05,
    "MEAN_MOTION_DDOT": 0.0,
    "TLE_LINE1": "1 51959U 22025D   25315.11157054  .00002287  00000+0  17239-3 0  9993",
    "TLE_LINE2": "2 51959  53.0546 208.1618 0001455  92.6774 267.4382 15.06404923202976",
    "COMMENT": "Grouped by shell and plane from TLE"
  },
  {
    "OBJECT_NAME": "STARLINK-3691",
    "OBJECT_ID": "22025E",
    "EPOCH": "2025-11-10T23:18:58.661856",
    "MEAN_MOTION": 15.06401054,
    "ECCENTRICITY": 0.0001503,
    "INCLINATION": 53.0543,
    "RA_OF_ASC_NODE": 208.7949,
    "ARG_OF_PERICENTER": 88.172,
    "MEAN_ANOMALY": 271.9441,
    "EPHEMERIS_TYPE": 0,
    "CLASSIFICATION_TYPE": "U",
    "NORAD_CAT_ID": 51960,
    "ELEMENT_SET_NO": 999,
    "REV_AT_EPOCH": 20295,
    "BSTAR": 0.00013274,
    "MEAN_MOTION_DOT": 1.696e-05,
    "MEAN_MOTION_DDOT": 0.0,
    "TLE_LINE1": "1 51960U 22025E   25314.97151229  .00001696  00000+0  13274-3 0  9994",
    "TLE_LINE2": "2 51960  53.0543 208.7949 0001503  88.1720 271.9441 15.06401054202959",
    "COMMENT": "Grouped by shell and plane from TLE"
  }
]